{
  "type": "FeatureCollection",
  "features": [
    {
      "type": "Feature",
      "geometry": {
        "type": "Polygon",
        "coordinates": [
          [
            [
              73.5,
              18.0
            ],
            [
              80.0,
              30.0
            ],
            [
              86.0,
              39.0
            ],
            [
              96.0,
              49.0
            ],
            [
              108.0,
              53.5
            ],
            [
              123.0,
              53.0
            ],
            [
              135.0,
              48.0
            ],
            [
              130.0,
              42.0
            ],
            [
              124.0,
              39.0
            ],
            [
              122.0,
              31.0
            ],
            [
              116.0,
              24.0
            ],
            [
              110.0,
              20.0
            ],
            [
              100.0,
              21.0
            ],
            [
              90.0,
              27.0
            ],
            [
              80.0,
              22.0
            ],
            [
              73.5,
              18.0
            ]
          ]
        ]
      },
      "properties": {
        "country": "China",
        "note": "Simplified polygon created for GeoJSON programming exercise. Not an official boundary.",
        "name": "China simplified boundary"
      }
    }
  ]
}